[
  {
    "nid": "7475",
    "title": "default",
    "code_entreprise": "default",
    "url_boutique": "http://lcas.arkeup.com/dpce/index.php/default/",
    "adresse": "Paris 2\u00e8me Rue Charles",
    "mail": "defaultce@default.com",
    "telephone": "",
    "ville": "",
    "numero": "0",
    "code_postal": "0"
  },
  {
    "nid": "7485",
    "title": "Thal\u00e8s",
    "code_entreprise": "thal\u00e8sce",
    "url_boutique": "http://lcas.arkeup.com/dpce/index.php/thales/",
    "adresse": "Adresse Thales",
    "mail": "thal\u00e8sce@thal\u00e8s.com",
    "telephone": "",
    "ville": null,
    "numero": "0",
    "code_postal": "0"
  },
  {
    "nid": "7476",
    "title": "axa",
    "code_entreprise": "axa",
    "url_boutique": "http://lcas.arkeup.com/dpce/index.php/axa/",
    "adresse": "Rue du Cdt Rene Mouchotte",
    "mail": "axa@mail.fr",
    "telephone": "0140850234",
    "ville": "rue 141",
    "numero": "34",
    "code_postal": "75014"
  },
  {
    "nid": "7564",
    "title": "Etech",
    "code_entreprise": "a123456",
    "url_boutique": "http://lcas.arkeup.com/dpce/index.php/",
    "adresse": "",
    "mail": "etechce@etech.com",
    "telephone": "",
    "ville": null,
    "numero": "0",
    "code_postal": "0"
  },
  {
    "nid": "7695",
    "title": "Demo",
    "code_entreprise": "a1230",
    "url_boutique": "http://lcas.arkeup.com/dpce/index.php/a1230/",
    "adresse": "8 boulevard montmartre , 75002 Paris",
    "mail": "democe@demo.com",
    "telephone": "",
    "ville": "",
    "numero": "0",
    "code_postal": "0"
  },
  {
    "nid": "7783",
    "title": "Favicon SARL",
    "code_entreprise": "a789456",
    "url_boutique": "http://lcas.arkeup.com/dpce/index.php",
    "adresse": "rue paris",
    "mail": "favicon_entreprise@gmail.com",
    "telephone": "",
    "ville": null,
    "numero": "127",
    "code_postal": "1523620165"
  },
  {
    "nid": "7935",
    "title": "SNCF OLD",
    "code_entreprise": "sncf oldce",
    "url_boutique": "http://lcas.arkeup.com/dpce/index.php/sncf_old/",
    "adresse": "Rue du Cdt Rene Mouchotte",
    "mail": "sncf.ce@demo.com",
    "telephone": "0140850234",
    "ville": null,
    "numero": "34",
    "code_postal": "75014"
  },
  {
    "nid": "8058",
    "title": "SNCF",
    "code_entreprise": "sncf",
    "url_boutique": "http://lcas.arkeup.com/dpce/index.php/sncf/",
    "adresse": "Rue du Cdt Rene Mouchotte",
    "mail": "sncf.ce@demo.com",
    "telephone": "0140850234",
    "ville": "",
    "numero": "34",
    "code_postal": "75014"
  },
  {
    "nid": "8118",
    "title": "WWF",
    "code_entreprise": "wwfce",
    "url_boutique": "http://lcas.arkeup.com/dpce/index.php/wwfce/",
    "adresse": "",
    "mail": "wwf@exemple.com",
    "telephone": "",
    "ville": "",
    "numero": "0",
    "code_postal": "0"
  },
  {
    "nid": "8195",
    "title": "TF8",
    "code_entreprise": "tf8ce",
    "url_boutique": "http://lcas.arkeup.com/dpce/index.php/thales",
    "adresse": "",
    "mail": "tfce@exemple.com",
    "telephone": "",
    "ville": null,
    "numero": "0",
    "code_postal": "0"
  },
  {
    "nid": "8204",
    "title": "CE CLICS",
    "code_entreprise": "a123a",
    "url_boutique": "http://lcas.arkeup.com/dpce/index.php/a123a/",
    "adresse": "",
    "mail": "ceclicsce@ceclics.com",
    "telephone": "",
    "ville": null,
    "numero": "0",
    "code_postal": "0"
  },
  {
    "nid": "8296",
    "title": "CE CLIC",
    "code_entreprise": "ce clic",
    "url_boutique": "http://lcas.arkeup.com/dpce/index.php/ce clic/",
    "adresse": "",
    "mail": "ceclicce@ceclic.com",
    "telephone": "",
    "ville": null,
    "numero": "0",
    "code_postal": "0"
  },
  {
    "nid": "8410",
    "title": "testFevrier2017",
    "code_entreprise": "testfevrier2017",
    "url_boutique": "http://lcas.arkeup.com/dpce/index.php/testfevrier2017/",
    "adresse": "",
    "mail": "xxxx@xxx.xx",
    "telephone": "",
    "ville": null,
    "numero": "0",
    "code_postal": "0"
  },
  {
    "nid": "8651",
    "title": "IMSerris",
    "code_entreprise": "IMSERRIS",
    "url_boutique": "http://www.pasdeboutique.fr",
    "adresse": "",
    "mail": "test@imserris.org",
    "telephone": "",
    "ville": null,
    "numero": "0",
    "code_postal": "0"
  },
  {
    "nid": "8684",
    "title": "PriceMinister",
    "code_entreprise": "priceminister",
    "url_boutique": "http://lcas.arkeup.com/dpce/index.php/priceminister/",
    "adresse": "",
    "mail": "entreprise@priceminister.com",
    "telephone": "",
    "ville": null,
    "numero": "0",
    "code_postal": "0"
  },
  {
    "nid": "8823",
    "title": "Mbola",
    "code_entreprise": "Mbola",
    "url_boutique": "http://",
    "adresse": "",
    "mail": "mbolace@mbola.com",
    "telephone": "",
    "ville": null,
    "numero": "0",
    "code_postal": "0"
  },
  {
    "nid": "8887",
    "title": "crea",
    "code_entreprise": "crea",
    "url_boutique": "http://arkeup.com",
    "adresse": "",
    "mail": "creace@crea.com",
    "telephone": "",
    "ville": null,
    "numero": "0",
    "code_postal": "0"
  },
  {
    "nid": "8953",
    "title": "CEHM",
    "code_entreprise": "HM2017",
    "url_boutique": "www.pasdeboutique.com",
    "adresse": "",
    "mail": "cehmce@cehm.com",
    "telephone": "",
    "ville": null,
    "numero": "0",
    "code_postal": "0"
  },
  {
    "nid": "9026",
    "title": "CE test21521557596",
    "code_entreprise": "1521557596cetest17",
    "url_boutique": "http://lcas.arkeup.com/dpce/index.php/cetest17/",
    "adresse": "",
    "mail": "1521557596testce@exemple.com",
    "telephone": "",
    "ville": "",
    "numero": "0",
    "code_postal": "0"
  },
  {
    "nid": "9215",
    "title": "truffaut",
    "code_entreprise": "truffaut",
    "url_boutique": "http://lcas.arkeup.com/dpce/index.php/truffaut/",
    "adresse": "",
    "mail": "monce@truffaut.fr",
    "telephone": "",
    "ville": "",
    "numero": "0",
    "code_postal": "0"
  },
  {
    "nid": "9411",
    "title": "DESIG",
    "code_entreprise": "desig",
    "url_boutique": null,
    "adresse": "",
    "mail": "desig@mail.fr",
    "telephone": "",
    "ville": "",
    "numero": "0",
    "code_postal": "0"
  },
  {
    "nid": "9427",
    "title": "usersynchro",
    "code_entreprise": "usersync",
    "url_boutique": "http://lcas.arkeup.com/dpce/index.php/usersync/",
    "adresse": "",
    "mail": "usersynchro@mail.fr",
    "telephone": "",
    "ville": "",
    "numero": "0",
    "code_postal": "0"
  },
  {
    "nid": "9442",
    "title": "CeExemple1",
    "code_entreprise": "cexemple1",
    "url_boutique": "http://lcas.arkeup.com/dpce/index.php/cexemple1/",
    "adresse": "Tana",
    "mail": "cexemple1@mail.fr",
    "telephone": "0123456789",
    "ville": "Tana",
    "numero": "123456",
    "code_postal": "456123"
  },
  {
    "nid": "9445",
    "title": "CeExemple2",
    "code_entreprise": "cexemple2",
    "url_boutique": "http://lcas.arkeup.com/dpce/index.php/cexemple2/",
    "adresse": "Tana",
    "mail": "cexemple2@mail.fr",
    "telephone": "0325647891",
    "ville": "Mada",
    "numero": "456789",
    "code_postal": "456132"
  },
  {
    "nid": "9449",
    "title": "Duplicata",
    "code_entreprise": "duplicata",
    "url_boutique": "http://lcas.arkeup.com/dpce/index.php/duplicata/",
    "adresse": "",
    "mail": "duplicata@exemple.com",
    "telephone": "",
    "ville": "",
    "numero": "0",
    "code_postal": "0"
  },
  {
    "nid": "9490",
    "title": "index",
    "code_entreprise": "index",
    "url_boutique": "http://lcas.arkeup.com/dpce/index.php/index/",
    "adresse": "",
    "mail": "index@index.fr",
    "telephone": "",
    "ville": "",
    "numero": "0",
    "code_postal": "0"
  },
  {
    "nid": "9494",
    "title": "D\u0026R",
    "code_entreprise": "cedr",
    "url_boutique": "http://lcas.arkeup.com/dpce/index.php/cedr/",
    "adresse": "Tana",
    "mail": "d.rakoto@test.fr",
    "telephone": "0321456987",
    "ville": "Tana",
    "numero": "123456",
    "code_postal": "123456"
  },
  {
    "nid": "9514",
    "title": "prodinit",
    "code_entreprise": "prodinit",
    "url_boutique": "http://lcas.arkeup.com/dpce/index.php/prodinit/",
    "adresse": "",
    "mail": "prodinit@mail.com",
    "telephone": "",
    "ville": "",
    "numero": "34",
    "code_postal": "0"
  },
  {
    "nid": "9561",
    "title": "CE HASINA",
    "code_entreprise": "hasina123",
    "url_boutique": "http://lcas.arkeup.com/dpce/index.php/hasina123/",
    "adresse": "",
    "mail": "ce@gmail.com",
    "telephone": "",
    "ville": "",
    "numero": "1",
    "code_postal": "0"
  },
  {
    "nid": "9609",
    "title": "EX SOCIETE",
    "code_entreprise": "societe",
    "url_boutique": "http://lcas.arkeup.com/dpce/index.php/societe/",
    "adresse": "",
    "mail": "societe@gmail.com",
    "telephone": "9876543",
    "ville": "",
    "numero": "9",
    "code_postal": "0"
  },
  {
    "nid": "9681",
    "title": "Lancel",
    "code_entreprise": "lancel",
    "url_boutique": "http://lcas.arkeup.com/dpce/index.php/lancel/",
    "adresse": "",
    "mail": "celancel@yopmail.com",
    "telephone": "",
    "ville": "",
    "numero": "0",
    "code_postal": "0"
  },
  {
    "nid": "9719",
    "title": "Power",
    "code_entreprise": "power",
    "url_boutique": "http://lcas.arkeup.com/dpce/index.php/power/",
    "adresse": "",
    "mail": "power@gmail.com",
    "telephone": "",
    "ville": "",
    "numero": "0",
    "code_postal": "0"
  },
  {
    "nid": "9723",
    "title": "Nomination",
    "code_entreprise": "nomi",
    "url_boutique": "http://lcas.arkeup.com/dpce/index.php/nomi/",
    "adresse": "111 rue du Ch\u00e2teau des Rentiers",
    "mail": "nominationadmin@yopmail.com",
    "telephone": "01 82 69 69 09",
    "ville": "Paris",
    "numero": "0",
    "code_postal": "75013"
  },
  {
    "nid": "9787",
    "title": "CECDN",
    "code_entreprise": "cecdn",
    "url_boutique": "http://lcas.arkeup.com/dpce/index.php/cecdn/",
    "adresse": "tana",
    "mail": "ccecdn@mail.com",
    "telephone": "456123",
    "ville": "Tana",
    "numero": "456123",
    "code_postal": "456"
  },
  {
    "nid": "9791",
    "title": "CEDPOR",
    "code_entreprise": "cedpor",
    "url_boutique": "http://lcas.arkeup.com/dpce/index.php/cedpor/",
    "adresse": "Tana",
    "mail": "cedpor@mail.com",
    "telephone": "123456798",
    "ville": "Tana",
    "numero": "13",
    "code_postal": "101"
  }
]
